ONEWEB-0683             
1 56719U 23068K   25311.95676596  .00000140  00000+0  33855-3 0  9993
2 56719  87.8972 303.3285 0001911  84.3344 275.8004 13.15550802120338
ONEWEB-0684             
1 56720U 23068L   25312.04075410  .00000117  00000+0  27760-3 0  9996
2 56720  87.8955 303.3070 0003199  96.4595 263.6900 13.15548775120173
ONEWEB-0686             
1 56721U 23068M   25312.16814772  .00000126  00000+0  29565-3 0  9997
2 56721  87.8995 272.8149 0002144  75.0025 285.1343 13.16756196122637
ONEWEB-0694             
1 56722U 23068N   25312.13526530  .00000043  00000+0  77963-4 0  9991
2 56722  87.9014 272.7615 0001908  67.6307 292.5026 13.16594641122685
ONEWEB-0696             
1 56723U 23068P   25311.99796043 -.00000125  00000+0 -36518-3 0  9996
2 56723  87.8959 303.3704 0002120  97.3442 262.7930 13.15549746120282
ONEWEB-0703             
1 56724U 23068Q   25312.00746744  .00000021  00000+0  21044-4 0  9995
2 56724  87.8951 303.3508 0002319 116.0707 244.0662 13.15547770120178
ONEWEB-0721             
1 56725U 23068R   25312.06234344  .00000146  00000+0  31497-3 0  9990
2 56725  86.6808 156.0439 0001481  83.4657 276.6644 13.22450649128718
ONEWEB-0015             
1 61594U 24188A   25312.04882448 -.00000461  00000+0 -13373-2 0  9990
2 61594  87.8857  65.1375 0001022 106.9925 253.1315 13.11417677 55473
